[{"OBJECT_NAME":"TIANMU-1 19","OBJECT_ID":"2023-208A","EPOCH":"2026-03-09T22:13:36.801696","MEAN_MOTION":15.2984143,"ECCENTRICITY":0.00039292,"INCLINATION":97.4383,"RA_OF_ASC_NODE":184.9132,"ARG_OF_PERICENTER":316.2611,"MEAN_ANOMALY":43.8317,"EPHEMERIS_TYPE":0,"CLASSIFICATION_TYPE":"U","NORAD_CAT_ID":58660,"ELEMENT_SET_NO":999,"REV_AT_EPOCH":12214,"BSTAR":0.00040995676,"MEAN_MOTION_DOT":0.00011779,"MEAN_MOTION_DDOT":0},{"OBJECT_NAME":"STARLINK-34523","OBJECT_ID":"2025-133D","EPOCH":"2026-03-09T09:43:49.352448","MEAN_MOTION":15.30216493,"ECCENTRICITY":0.00013444,"INCLINATION":53.1582,"RA_OF_ASC_NODE":118.2092,"ARG_OF_PERICENTER":89.5276,"MEAN_ANOMALY":270.5878,"EPHEMERIS_TYPE":0,"CLASSIFICATION_TYPE":"U","NORAD_CAT_ID":64475,"ELEMENT_SET_NO":999,"REV_AT_EPOCH":4112,"BSTAR":0.0010181901,"MEAN_MOTION_DOT":0.00029934,"MEAN_MOTION_DDOT":0}]
